{
    "links": {
        "self": "http://www.neowsapp.com/rest/v1/neo/3487954?api_key=iIulBulltgU6a56xZRHN4H3l9WmuAYTsLGpBGhQ2"
    },
    "id": "3487954",
    "neo_reference_id": "3487954",
    "name": "(2010 BG5)",
    "designation": "2010 BG5",
    "nasa_jpl_url": "http://ssd.jpl.nasa.gov/sbdb.cgi?sstr=3487954",
    "absolute_magnitude_h": 24.0,
    "estimated_diameter": {
        "kilometers": {
            "estimated_diameter_min": 0.0421264611,
            "estimated_diameter_max": 0.0941976306
        },
        "meters": {
            "estimated_diameter_min": 42.1264610556,
            "estimated_diameter_max": 94.1976305719
        },
        "miles": {
            "estimated_diameter_min": 0.0261761612,
            "estimated_diameter_max": 0.0585316759
        },
        "feet": {
            "estimated_diameter_min": 138.2101784897,
            "estimated_diameter_max": 309.0473542854
        }
    },
    "is_potentially_hazardous_asteroid": false,
    "close_approach_data": [
        {
            "close_approach_date": "2001-07-24",
            "close_approach_date_full": "2001-Jul-24 05:10",
            "epoch_date_close_approach": 995951400000,
            "relative_velocity": {
                "kilometers_per_second": "12.9862354859",
                "kilometers_per_hour": "46750.447749101",
                "miles_per_hour": "29048.9101583234"
            },
            "miss_distance": {
                "astronomical": "0.0775480358",
                "lunar": "30.1661859262",
                "kilometers": "11601020.978363746",
                "miles": "7208540.1715058548"
            },
            "orbiting_body": "Mars"
        },
        {
            "close_approach_date": "2010-02-01",
            "close_approach_date_full": "2010-Feb-01 00:06",
            "epoch_date_close_approach": 1264982760000,
            "relative_velocity": {
                "kilometers_per_second": "9.092304544",
                "kilometers_per_hour": "32732.2963584456",
                "miles_per_hour": "20338.5760345019"
            },
            "miss_distance": {
                "astronomical": "0.0158666433",
                "lunar": "6.1721242437",
                "kilometers": "2373616.041729771",
                "miles": "1474896.6164659998"
            },
            "orbiting_body": "Earth"
        },
        {
            "close_approach_date": "2010-06-04",
            "close_approach_date_full": "2010-Jun-04 10:17",
            "epoch_date_close_approach": 1275646620000,
            "relative_velocity": {
                "kilometers_per_second": "3.485390611",
                "kilometers_per_hour": "12547.4061996044",
                "miles_per_hour": "7796.4702577486"
            },
            "miss_distance": {
                "astronomical": "0.4139139057",
                "lunar": "161.0125093173",
                "kilometers": "61920638.656100859",
                "miles": "38475700.7189514942"
            },
            "orbiting_body": "Earth"
        },
        {
            "close_approach_date": "2018-12-31",
            "close_approach_date_full": "2018-Dec-31 21:08",
            "epoch_date_close_approach": 1546290480000,
            "relative_velocity": {
                "kilometers_per_second": "22.3174601459",
                "kilometers_per_hour": "80342.8565253394",
                "miles_per_hour": "49921.9266004254"
            },
            "miss_distance": {
                "astronomical": "0.4529257855",
                "lunar": "176.1881305595",
                "kilometers": "67756732.778876885",
                "miles": "42102081.449335613"
            },
            "orbiting_body": "Earth"
        }
    ],
    "orbital_data": {
        "orbit_id": "8",
        "orbit_determination_date": "2017-04-06 08:58:31",
        "first_observation_date": "2010-01-25",
        "last_observation_date": "2010-01-30",
        "data_arc_in_days": 5,
        "observations_used": 22,
        "orbit_uncertainty": "7",
        "minimum_orbit_intersection": ".0155115",
        "jupiter_tisserand_invariant": "4.510",
        "epoch_osculation": "2459000.5",
        "eccentricity": ".3867296612746987",
        "semi_major_axis": "1.471715268024959",
        "inclination": "6.602549008108302",
        "ascending_node_longitude": "318.7449686247621",
        "orbital_period": "652.129910532857",
        "perihelion_distance": ".9025593209288642",
        "perihelion_argument": "216.7237712454225",
        "aphelion_distance": "2.040871215121054",
        "perihelion_time": "2459175.593919439831",
        "mean_anomaly": "263.3416348794154",
        "mean_motion": ".5520372462380128",
        "equinox": "J2000",
        "orbit_class": {
            "orbit_class_type": "APO",
            "orbit_class_description": "Near-Earth asteroid orbits which cross the Earth’s orbit similar to that of 1862 Apollo",
            "orbit_class_range": "a (semi-major axis) > 1.0 AU; q (perihelion) < 1.017 AU"
        }
    },
    "is_sentry_object": false
}